OBJECT_NAME,OBJECT_ID,EPOCH,MEAN_MOTION,ECCENTRICITY,INCLINATION,RA_OF_ASC_NODE,ARG_OF_PERICENTER,MEAN_ANOMALY,EPHEMERIS_TYPE,CLASSIFICATION_TYPE,NORAD_CAT_ID,ELEMENT_SET_NO,REV_AT_EPOCH,BSTAR,MEAN_MOTION_DOT,MEAN_MOTION_DDOT
H-2A R/B,2006-002B,2026-06-15T22:24:56.059488,15.18046737,.00495735,98.2559,322.6491,266.6950,92.8610,0,U,28932,999,10933,.2612014E-3,.5405E-4,0
RESURS-DK 1,2006-021A,2026-06-15T21:52:42.684096,15.13214396,.00069259,69.9341,342.8543,292.9934,67.0501,0,U,29228,999,10238,.12439525E-3,.2107E-4,0
CZ-4B R/B,2006-046C,2026-06-15T20:50:27.749472,15.17775795,.00310009,97.5451,211.4794,287.4821,72.3025,0,U,29507,999,7493,.18141898E-3,.3638E-4,0
CZ-2C R/B,2007-010B,2026-06-15T22:23:09.685536,14.20275943,.00591003,98.4098,275.3450,9.7791,350.4523,0,U,31114,999,99366,.46733718E-4,.6E-6,0
COSMO-SKYMED 1,2007-023A,2026-06-15T22:21:59.457888,14.97093894,.00012187,97.8840,358.7771,99.0540,261.0819,0,U,31598,999,2960,.20070233E-3,.2255E-4,0
COSMOS 2428,2007-029A,2026-06-15T22:33:49.496544,14.12928323,.00071374,70.9370,357.0961,137.3144,222.8533,0,U,31792,999,97797,-.38741153E-4,-.12E-5,0
SL-16 R/B,2007-029B,2026-06-15T22:01:33.084192,14.14854655,.00023005,70.9768,325.8968,261.7409,211.2194,0,U,31793,999,97926,.1044349E-3,.154E-5,0
KORONAS-FOTON,2009-003A,2026-06-15T23:28:15.508128,15.45701536,.00115468,82.4280,173.5209,151.5476,208.6405,0,U,33504,999,96091,.18346073E-3,.8916E-4,0
CZ-2C R/B,2011-030B,2026-06-15T21:26:44.517120,14.81468776,.00531536,97.8654,122.3029,32.1106,33.3882,0,U,37731,999,80463,.14698655E-3,.1125E-4,0
H-2A R/B,2012-025E,2026-06-15T22:51:58.673088,14.95714694,.00437168,98.4829,141.9966,353.4258,6.6382,0,U,38341,999,76290,.26821174E-3,.2973E-4,0
SHIJIAN-16 (SJ-16),2013-057A,2026-06-15T23:10:51.843648,14.92605485,.00168476,74.9727,358.9969,233.6661,126.2973,0,U,39358,999,68616,.11886397E-3,.1197E-4,0
SL-4 R/B,2014-021B,2026-06-15T19:58:43.847616,15.41930073,.00913059,51.6036,217.4086,101.0610,260.0660,0,U,39679,999,67140,.17704676E-3,.843E-4,0
ALOS-2,2014-029A,2026-06-15T23:44:45.028320,14.79467614,.00016468,97.9225,264.1696,91.7166,268.4234,0,U,39766,999,65140,.14824107E-3,.1056E-4,0
YAOGAN-29,2015-069A,2026-06-15T23:07:16.648896,14.83083694,.00026285,98.0025,195.5940,57.0651,303.0815,0,U,41038,999,57044,.507739E-4,.359E-5,0
ASTRO-H (HITOMI),2016-012A,2026-06-14T23:39:29.445408,15.10502589,.00097644,30.9993,88.4041,231.8970,128.0788,0,U,41337,999,56695,.13127652E-3,.2314E-4,0
HXMT (HUIYAN),2017-034A,2026-06-15T22:48:29.015712,15.18471621,.00304583,43.0126,189.9283,139.0777,221.2365,0,U,42758,999,49747,.12902739E-3,.2493E-4,0
SAOCOM 1A,2018-076A,2026-06-15T23:43:13.632672,14.82146725,.00015815,97.8876,353.7544,77.4591,282.6799,0,U,43641,999,41592,.8784651E-5,.18E-6,0
H-2A R/B,2018-084L,2026-06-15T23:06:05.832000,15.45114753,.00236358,98.8578,45.5851,44.7728,315.5419,0,U,43682,999,42093,.36555637E-3,.17383E-3,0
SAOCOM 1B,2020-059A,2026-06-15T22:50:52.052640,14.82211365,.00013445,97.8879,352.8136,83.7717,276.3649,0,U,46265,999,31330,.12697321E-3,.96E-5,0
CSS (TIANHE),2021-035A,2026-06-15T19:48:23.213952,15.60759061,.00075428,41.4696,330.2900,66.1624,294.0005,0,U,48274,999,29295,.24529479E-3,.20744E-3,0
COSMOS 2550,2021-056A,2026-06-15T20:24:29.552256,15.33840203,.00084103,67.1432,103.9496,267.8380,92.1811,0,U,48865,999,27851,.13076014E-3,.4114E-4,0
CZ-2C R/B,2022-058K,2026-06-15T16:57:31.619808,15.61760103,.0032536,50.1831,171.2218,261.8496,97.8786,0,U,52794,999,22541,.34410874E-3,.30771E-3,0
CZ-2C R/B,2022-132E,2026-06-15T22:37:16.399488,15.71378432,.00161978,97.2896,173.9111,88.4667,271.8452,0,U,54039,999,20575,.40985645E-3,.5258E-3,0
GSLV R/B,2022-138AN,2026-06-15T23:33:29.257632,14.97252201,.00226996,87.3803,133.3888,147.6585,212.6044,0,U,54149,999,19863,.22731172E-3,.2673E-4,0
XRISM,2023-137A,2026-06-15T22:28:55.049664,15.12457150,.00079586,31.0032,7.7018,311.4201,48.5754,0,U,57800,999,15267,.24590239E-3,.4483E-4,0
ACS3,2024-077B,2026-06-15T18:28:43.131360,13.93874318,.00718624,97.1686,85.8740,64.2055,296.6503,0,U,59588,999,10784,.90339574E-2,.12164E-3,0
CZ-8A R/B,2025-231K,2026-06-15T22:25:02.161920,14.30154619,.0116481,50.0057,44.6477,219.5938,139.6427,0,U,66004,999,3476,.38926711E-4,-.54E-6,0
SZ-21 MODULE,2025-246C,2026-06-15T16:41:15.002592,15.76287551,.00064925,41.4723,316.6164,340.9855,19.0747,0,U,66515,999,3350,.25046654E-3,.4052E-3,0
