H-2A R/B                
1 28932U 06002B   26166.93398217  .00005405  00000+0  26120-3 0  9992
2 28932  98.2559 322.6491 0049573 266.6950  92.8610 15.18046737109337
RESURS-DK 1             
1 29228U 06021A   26166.91160514  .00002107  00000+0  12440-3 0  9993
2 29228  69.9341 342.8543 0006925 292.9934  67.0501 15.13214396102384
CZ-4B R/B               
1 29507U 06046C   26166.86837673  .00003638  00000+0  18142-3 0  9996
2 29507  97.5451 211.4794 0031000 287.4821  72.3025 15.17775795 74936
CZ-2C R/B               
1 31114U 07010B   26166.93275099  .00000060  00000+0  46734-4 0  9996
2 31114  98.4098 275.3450 0059100   9.7791 350.4523 14.20275943993666
COSMO-SKYMED 1          
1 31598U 07023A   26166.93193817  .00002255  00000+0  20070-3 0  9995
2 31598  97.8840 358.7771 0001218  99.0540 261.0819 14.97093894 29609
COSMOS 2428             
1 31792U 07029A   26166.94015621 -.00000120  00000+0 -38741-4 0  9990
2 31792  70.9370 357.0961 0007137 137.3144 222.8533 14.12928323977971
SL-16 R/B               
1 31793U 07029B   26166.91774403  .00000154  00000+0  10443-3 0  9991
2 31793  70.9768 325.8968 0002300 261.7409 211.2194 14.14854655979263
KORONAS-FOTON           
1 33504U 09003A   26166.97795727  .00008916  00000+0  18346-3 0  9999
2 33504  82.4280 173.5209 0011546 151.5476 208.6405 15.45701536960911
CZ-2C R/B               
1 37731U 11030B   26166.89357080  .00001125  00000+0  14699-3 0  9997
2 37731  97.8654 122.3029 0053153  32.1106  33.3882 14.81468776804631
H-2A R/B                
1 38341U 12025E   26166.95276242  .00002973  00000+0  26821-3 0  9999
2 38341  98.4829 141.9966 0043716 353.4258   6.6382 14.95714694762907
SHIJIAN-16 (SJ-16)      
1 39358U 13057A   26166.96587782  .00001197  00000+0  11886-3 0  9991
2 39358  74.9727 358.9969 0016847 233.6661 126.2973 14.92605485686169
SL-4 R/B                
1 39679U 14021B   26166.83245194  .00008430  00000+0  17705-3 0  9996
2 39679  51.6036 217.4086 0091305 101.0610 260.0660 15.41930073671403
ALOS-2                  
1 39766U 14029A   26166.98941005  .00001056  00000+0  14824-3 0  9997
2 39766  97.9225 264.1696 0001646  91.7166 268.4234 14.79467614651402
YAOGAN-29               
1 41038U 15069A   26166.96338714  .00000359  00000+0  50774-4 0  9992
2 41038  98.0025 195.5940 0002628  57.0651 303.0815 14.83083694570443
ASTRO-H (HITOMI)        
1 41337U 16012A   26165.98575747  .00002314  00000+0  13128-3 0  9997
2 41337  30.9993  88.4041 0009764 231.8970 128.0788 15.10502589566955
HXMT (HUIYAN)           
1 42758U 17034A   26166.95033583  .00002493  00000+0  12903-3 0  9993
2 42758  43.0126 189.9283 0030458 139.0777 221.2365 15.18471621497476
SAOCOM 1A               
1 43641U 18076A   26166.98835223  .00000018  00000+0  87847-5 0  9998
2 43641  97.8876 353.7544 0001581  77.4591 282.6799 14.82146725415928
H-2A R/B                
1 43682U 18084L   26166.96256750  .00017383  00000+0  36556-3 0  9994
2 43682  98.8578  45.5851 0023635  44.7728 315.5419 15.45114753420931
SAOCOM 1B               
1 46265U 20059A   26166.95199135  .00000960  00000+0  12697-3 0  9994
2 46265  97.8879 352.8136 0001344  83.7717 276.3649 14.82211365313306
CSS (TIANHE)            
1 48274U 21035A   26166.82526868  .00020744  00000+0  24529-3 0  9993
2 48274  41.4696 330.2900 0007542  66.1624 294.0005 15.60759061292954
COSMOS 2550             
1 48865U 21056A   26166.85034204  .00004114  00000+0  13076-3 0  9991
2 48865  67.1432 103.9496 0008410 267.8380  92.1811 15.33840203278519
CZ-2C R/B               
1 52794U 22058K   26166.70661597  .00030771  00000+0  34411-3 0  9999
2 52794  50.1831 171.2218 0032536 261.8496  97.8786 15.61760103225413
CZ-2C R/B               
1 54039U 22132E   26166.94255092  .00052580  00000+0  40986-3 0  9997
2 54039  97.2896 173.9111 0016197  88.4667 271.8452 15.71378432205759
GSLV R/B                
1 54149U 22138AN  26166.98158863  .00002673  00000+0  22731-3 0  9993
2 54149  87.3803 133.3888 0022699 147.6585 212.6044 14.97252201198631
XRISM                   
1 57800U 23137A   26166.93674826  .00004483  00000+0  24590-3 0  9993
2 57800  31.0032   7.7018 0007958 311.4201  48.5754 15.12457150152670
ACS3                    
1 59588U 24077B   26166.76994365  .00012164  00000+0  90340-2 0  9996
2 59588  97.1686  85.8740 0071862  64.2055 296.6503 13.93874318107840
CZ-8A R/B               
1 66004U 25231K   26166.93405280 -.00000054  00000+0  38927-4 0  9993
2 66004  50.0057  44.6477 0116481 219.5938 139.6427 14.30154619 34761
SZ-21 MODULE            
1 66515U 25246C   26166.69531253  .00040520  00000+0  25047-3 0  9998
2 66515  41.4723 316.6164 0006492 340.9855  19.0747 15.76287551 33504
